#dP2024  6 15  0  0  0.00000000      96 __u+U IGS20 FIT  IAC
## 2318 518400.00000000   900.00000000 60476 0.0000000000000
+   54   G02G03G04G05G06G07G08G09G10G11G12G13G14G15G16G17G18
+        G19G20G21G22G23G24G25G26G27G28G29G30G31G32R01R02R03
+        R04R05R07R08R09R11R12R13R14R15R16R17R18R19R20R21R22
+        R24R25R26  0  0  0  0  0  0  0  0  0  0  0  0  0  0
+          0  0  0  0  0  0  0  0  0  0  0  0  0  0  0  0  0
++         7  5  6  8  6  8  7  6  6  7  7  7  6  6  6  8  7
++         6  8  7  6  7  7  7  6  6  7  6  7  5  6  7  6  6
++         6  6  6  7  6  7  6  7  6  6  8  6  7  5  7  6  6
++         8  7  7  0  0  0  0  0  0  0  0  0  0  0  0  0  0
++         0  0  0  0  0  0  0  0  0  0  0  0  0  0  0  0  0
%c M  cc GPS ccc cccc cccc cccc cccc ccccc ccccc ccccc ccccc
%c cc cc ccc ccc cccc cccc cccc cccc ccccc ccccc ccccc ccccc
%f  0.0000000  0.000000000  0.00000000000  0.000000000000000
%f  0.0000000  0.000000000  0.00000000000  0.000000000000000
%i    0    0    0    0      0      0      0      0         0
%i    0    0    0    0      0      0      0      0         0
/* INFORMATION & ANALYSIS CENTER (IAC)      ULTRA-RAPID DATA
/* S/V CLOCKS ARE ALIGNED TO GNSS TIME                      
/* G:C1WC2W R:C1PC2P E:C1XC5X C:C2IC6I J:C1CC2S             
/* PCV:IGS20_2317 OL/AL:FES2004  NONE     YN ORB:CoN CLK:CoN
*  2024 06 15  5 30  0.00000000
PG02 -16112.673848 -13384.753987 -16029.546017   -417.459022
PG03 -12611.369317 -21781.097512   8518.731694    414.112018
PG04  -9006.785310 -12315.550314  21749.750740    383.479011
PG05   4671.507835  25289.833124   6271.673705   -176.369471
PG06 -19647.588790   6583.918195  16738.424335    217.747011
PG07 -26082.401375  -6224.234930    466.841187    -92.725161
PG08    -45.991067 -19500.519643 -17946.118922    230.356299
PG09 -17941.044471   -323.248319  19516.255294    235.288975
PG10  12697.182571  -7805.880992 -21745.672821    -43.209590
PG11  -6458.421801  13820.520070  21761.807771   -685.721968
PG12  10197.598904  23624.599981   6404.760290   -514.209838
PG13  -9858.811869  20348.322320 -13950.275677    658.013046
PG14 -15092.216266   3666.446505 -21511.879361    425.750224
PG15   2769.969114  19690.155827 -18021.325415    170.301711
PG16    753.497729 -24746.487108   8645.077588   -263.907902
PG17 -21724.945679  11613.817347  -9720.063423    694.330383
PG18  26053.597254   5593.604917  -1114.915656   -625.080785
PG19 -20514.281362  16449.222534  -1730.052691    496.623400
PG20   -992.250023  21744.163339  15383.745418    373.825016
PG21 -11367.215922 -14766.631144 -18864.597410    115.364849
PG22 -11468.935815  12788.792517 -19917.666953    -27.459982
PG23  16260.911254   5349.825461 -20340.777395    250.645508
PG24  13842.734377  14926.024471 -17688.778463   -477.781944
PG25  15779.729555  16153.136655  13852.484739    497.355897
PG26   8369.067412 -16538.686037  18739.363778    136.738748
PG27  10367.486427 -22076.958437 -10270.368114    -28.254105
PG28  21299.436420  -6283.615143  14560.071617   -289.450997
PG29  15969.853471   4473.867784  20720.147625   -594.155016
PG30 -24518.508320   2155.687595 -10169.570911   -374.033308
PG31  12077.722976 -11865.623353  20340.760603   -227.387817
PG32  20641.418370 -14170.942903  -8345.160248   -616.178744
PR01    -22.586822  20839.105137 -14696.860168     88.438733
PR02   8790.775298   6742.335838 -22934.698148    -23.295802
PR03  13605.261901 -11460.728119 -18208.464934    102.106497
PR04  10935.982933 -22736.582533  -3692.465362    241.152535
PR05   2452.614115 -21908.436161  12828.151344    133.108497
PR07 -13699.949315  12183.754509  17799.445685     84.596694
PR08 -10733.383229  22889.332634   3577.462317     -4.986369
PR09 -18621.818605 -15470.804798  -8146.735496    192.296284
PR11  -3822.052598  11940.393660 -22197.253518     21.372418
PR12  11088.350279  20890.443892  -9539.813157     41.328647
PR13  17919.575261  17226.850736   5719.613501    -48.362009
PR14  14638.089951   1824.544752  20820.333550     26.578536
PR15   2702.772425 -13222.062363  21671.508546     78.798688
PR16 -11064.842023 -20801.566388   9837.578356     26.505720
PR17  24848.941736  -5052.833008  -2973.030498     95.968297
PR18  15454.168676 -10115.061411 -17561.263805    147.085975
PR19    418.777778 -10492.233113 -23253.105099   -280.365119
PR20 -20247.434174  -4586.858079 -14845.926590   -114.528544
PR21 -24911.949194   4695.592121   2679.930881   -109.383653
PR22 -14659.061972  10280.136727  18194.573083    102.529972
PR24  20810.496124   3745.045085  14291.822186    -59.895577
PR25 -24929.296759   4242.228763   3258.518464    -56.216010
PR26 -11032.345702  22474.006174   4837.612549     -6.281267
*  2024 06 15  5 45  0.00000000
PG02 -14101.034262 -13319.179552 -17801.685674   -417.452713
PG03 -12721.306953 -22623.681130   5778.966285    414.128171
PG04  -7304.090469 -14090.617901  21293.823427    383.486328
PG05   4133.733429  24541.144896   8973.100141   -176.370844
PG06 -21366.884316   6112.945371  14686.476465    217.727937
PG07 -25883.550967  -6438.382781   3263.633309    -92.715982
PG08   1325.356073 -20901.468445 -16187.567296    230.372686
PG09 -16550.817489  -2171.261220  20587.911740    235.302175
PG10  13556.192949  -5412.547042 -21979.625092    -43.217105
PG11  -8838.546189  13206.261698  21296.439530   -685.729161
PG12  10121.518800  24272.416061   3625.529613   -514.212884
PG13 -11069.027084  21148.539079 -11600.461171    658.015379
PG14 -15827.761867   1319.341871 -21273.373739    425.758465
PG15   1600.726036  21191.148452 -16316.100673    170.305742
PG16   1300.849062 -23654.788517  11205.799946   -263.898300
PG17 -20957.831868  10539.655639 -12191.716132    694.325719
PG18  25977.860426   5783.365195   1755.434824   -625.085119
PG19 -20441.125560  16021.105448  -4593.298834    496.628576
PG20  -2048.544520  20212.104675  17248.984212    373.824704
PG21  -9086.170694 -14616.152632 -20058.123370    115.362557
PG22 -12126.520069  10468.710164 -20816.961344    -27.464370
PG23  16982.942102   7480.504901 -19056.794837    250.653803
PG24  11812.613232  14883.028442 -19135.051659   -477.784212
PG25  16089.036296  17634.621956  11580.323014    497.356396
PG26   9425.832472 -14535.431358  19888.403012    136.733163
PG27  11208.494910 -22674.725139  -7642.949793    -28.255190
PG28  22788.826624  -5846.078706  12315.990946   -289.466066
PG29  14293.751938   6219.990273  21467.425337   -594.153408
PG30 -25480.993056   1683.833069  -7635.837995   -374.027700
PG31  14306.285977 -11292.438578  19237.589237   -227.387555
PG32  20094.735789 -13146.418929 -10915.477568   -616.177670
PR01   -412.819075  22450.351577 -12085.274661     88.439182
PR02   7865.535650   9390.971950 -22337.641872    -23.294828
PR03  12737.505150  -9252.832745 -20003.480431    102.106995
PR04  10549.422285 -22180.749765  -6835.359224    241.154362
PR05   2790.265846 -23285.890163  10021.786439    133.109016
PR07 -12841.084470  10044.850433  19676.663455     84.597145
PR08 -10371.961057  22352.331732   6713.951107     -4.986774
PR09 -19243.288814 -16011.220401  -5104.789801    192.298539
PR11  -5639.368603   9833.423583 -22835.381415     21.370598
PR12  10287.502761  19791.271530 -12355.507983     41.329177
PR13  18355.631477  17524.755395   2568.632117    -48.362043
PR14  16315.367838   3638.436655  19275.167972     26.578534
PR15   4459.240586 -11143.957254  22532.419835     78.798449
PR16 -10255.163674 -19671.035258  12641.231666     26.505503
PR17  24979.898546  -5272.630010    250.554042     95.971077
PR18  17433.809799 -10594.800648 -15273.353414    147.087503
PR19   3234.875692 -10909.523815 -22836.534963   -280.366150
PR20 -18264.345819  -4692.917237 -17195.362762   -114.529228
PR21 -25008.157775   4914.889577   -556.033788   -109.386031
PR22 -16731.965538  10678.867311  16048.499934    102.525964
PR24  18912.415021   3972.832064  16670.039017    -59.896934
PR25 -25111.329712   4414.968661     53.262951    -56.244599
PR26 -10627.398807  21782.433240   7933.282442     -6.280508
EOF
